KUZGTU 1 (RS47S)        
1 57217U 23091AV  26197.13420755  .00006611  00000+0  22665-3 0  9996
2 57217  97.5049 261.9193 0009983   2.9745 357.1553 15.30482840168802
SONATE-2                
1 59112U 24043Q   26196.87861051  .00026970  00000+0  32357-3 0  9997
2 59112  97.5558 349.0866 0006829 104.4767 255.7248 15.60865200132360
MESAT1                  
1 60209U 24125G   26197.13772774  .00044120  00000+0  42190-3 0  9993
2 60209  97.2240  55.3450 0010894 109.3193 250.9247 15.66521084114095
OOV-CUBE (TUBSAT-30)    
1 60240U 24128F   26197.19853053  .00000923  00000+0  83086-4 0  9990
2 60240  61.9938 124.4033 0040980 140.2429 220.1678 15.02875959110470
COLIBRI-S (RS67S)       
1 61746U 24199M   26197.14469060  .00012733  00000+0  23763-3 0  9993
2 61746  97.2944  71.2808 0009105 158.7832 201.3798 15.48875053141895
HORS 3 (RS81S)          
1 61753U 24199U   26197.15775140  .00022099  00000+0  30745-3 0  9995
2 61753  97.2928  73.6115 0007280 153.0760 207.0874 15.56954912142061
HORS 4 (RS82S)          
1 61754U 24199V   26197.15202451  .00034192  00000+0  38516-3 0  9997
2 61754  97.2870  75.0104 0007123 145.5067 214.6654 15.62453141142160
SIT-2086                
1 61764U 24199AF  26197.17121166  .00021161  00000+0  31557-3 0  9993
2 61764  97.2884  74.0012 0008356 141.5720 218.6131 15.55065021138936
HYPERVIEW 1G (RS66S)    
1 61772U 24199AP  26197.12474653  .00179307  00000+0  73077-3 0  9998
2 61772  97.2784  78.4994 0008305 145.8282 214.3525 15.85644399139244
ALTAIR (RS65S)          
1 61779U 24199AW  26197.14309050  .00006081  00000+0  16708-3 0  9991
2 61779  97.2987  66.3077 0012144 192.9459 167.1476 15.37518546141568
ASRTU-1 (AO-123)        
1 61781U 24199AY  26197.15748559  .00004094  00000+0  11857-3 0  9998
2 61781  97.2959  65.5692 0013124 197.0270 163.0535 15.36061705138375
SAMSAT-IONOSPHERE (RS7*)
1 61784U 24199BB  26197.13718139  .00033591  00000+0  41246-3 0  9999
2 61784  97.2891  73.7537 0009333 157.0377 203.1299 15.60185725142074
RTU MIREA 1 (RS51S)     
1 61785U 24199BC  26197.15508198  .00042143  00000+0  43958-3 0  9999
2 61785  97.2879  74.7678 0009408 152.2674 207.9089 15.64360958138990
TEVEL2-4                
1 63213U 25052D   26197.18890748  .00010626  00000+0  30934-3 0  9995
2 63213  97.3863  93.6437 0003466  49.7684 310.3862 15.35588389 74562
TEVEL2-5                
1 63214U 25052E   26196.17004561  .00010329  00000+0  30278-3 0  9995
2 63214  97.3866  92.5619 0003594  53.2255 306.9318 15.35379345 74402
TEVEL2-6                
1 63215U 25052F   26196.50888836  .00011734  00000+0  34391-3 0  9999
2 63215  97.3871  92.8865 0003621  54.7007 305.4575 15.35351129 74451
TEVEL2-1                
1 63217U 25052H   26195.63531658  .00009885  00000+0  29557-3 0  9993
2 63217  97.3847  91.6018 0004319  61.6960 298.4718 15.34761887 74302
TEVEL2-3                
1 63218U 25052J   26196.21566252  .00010309  00000+0  30743-3 0  9999
2 63218  97.3848  92.2082 0003999  62.2511 297.9137 15.34836829 74391
TEVEL2-2                
1 63219U 25052K   26197.13499605  .00010566  00000+0  31534-3 0  9993
2 63219  97.3836  93.1056 0004244  58.4360 301.7297 15.34804597 74537
OTP-2                   
1 63235U 25052AB  26196.19469747  .00003687  00000+0  15352-3 0  9996
2 63235  97.3835  88.2085 0008212  71.0688 289.1439 15.24337017 74134
TEVEL2-9                
1 63237U 25052AD  26196.95467049  .00009229  00000+0  29400-3 0  9992
2 63237  97.3903  92.2363 0007616  55.0737 305.1220 15.32746436 74438
TEVEL2-7                
1 63238U 25052AE  26197.13190506  .00009415  00000+0  30280-3 0  9990
2 63238  97.3903  92.3168 0007678  54.3159 305.8797 15.32433973 74458
TEVEL2-8                
1 63239U 25052AF  26196.94454067  .00009179  00000+0  29548-3 0  9996
2 63239  97.3903  92.1059 0007741  55.6204 304.5769 15.32415227 74426
INNOSAT 16 (RS92S7)     
1 64878U 25155C   26197.18949921  .00002840  00000+0  11400-3 0  9991
2 64878  97.4585 164.2340 0012475  85.3952 274.8711 15.25744092 85095
GEOSCAN 6 (RS92S6)      
1 64879U 25155D   26197.14653884  .00005790  00000+0  19770-3 0  9993
2 64879  97.4576 165.8245 0009943  79.4080 280.8280 15.30665639 85193
GEOSCAN 1 (RS92S1)      
1 64880U 25155E   26197.13718880  .00006350  00000+0  21229-3 0  9997
2 64880  97.4572 165.9893 0009892  79.6940 280.5416 15.31314447 85200
239ALFEROV (RS61S)      
1 64881U 25155F   26197.19424397  .00008204  00000+0  25398-3 0  9992
2 64881  97.4571 166.7094 0009591  79.4281 280.8041 15.33686576 85253
GEOSCAN 2 (RS92S2)      
1 64890U 25155Q   26197.19123838  .00005890  00000+0  19560-3 0  9990
2 64890  97.4571 166.2075 0009014  69.8347 290.3863 15.31571790 85227
GEOSCAN 5 (RS92S5)      
1 64891U 25155R   26197.17736240  .00007714  00000+0  23678-3 0  9998
2 64891  97.4563 166.8407 0008611  83.9757 276.2466 15.33991682 85262
GEOSCAN 4 (RS92S4)      
1 64892U 25155S   26197.15851781  .00007933  00000+0  24213-3 0  9994
2 64892  97.4568 166.8788 0008531  84.3424 275.8791 15.34159699 85268
