OBJECT_NAME,OBJECT_ID,EPOCH,MEAN_MOTION,ECCENTRICITY,INCLINATION,RA_OF_ASC_NODE,ARG_OF_PERICENTER,MEAN_ANOMALY,EPHEMERIS_TYPE,CLASSIFICATION_TYPE,NORAD_CAT_ID,ELEMENT_SET_NO,REV_AT_EPOCH,BSTAR,MEAN_MOTION_DOT,MEAN_MOTION_DDOT
KUZGTU 1 (RS47S),2023-091AV,2026-07-16T03:13:15.532320,15.30482840,.0009983,97.5049,261.9193,2.9745,357.1553,0,U,57217,999,16880,.22665E-3,.6611E-4,0
SONATE-2,2024-043Q,2026-07-15T21:05:11.948064,15.60865200,.0006829,97.5558,349.0866,104.4767,255.7248,0,U,59112,999,13236,.32357E-3,.2697E-3,0
MESAT1,2024-125G,2026-07-16T03:18:19.676736,15.66521084,.0010894,97.2240,55.3450,109.3193,250.9247,0,U,60209,999,11409,.4219E-3,.4412E-3,0
OOV-CUBE (TUBSAT-30),2024-128F,2026-07-16T04:45:53.037792,15.02875959,.004098,61.9938,124.4033,140.2429,220.1678,0,U,60240,999,11047,.83086E-4,.923E-5,0
COLIBRI-S (RS67S),2024-199M,2026-07-16T03:28:21.267840,15.48875053,.0009105,97.2944,71.2808,158.7832,201.3798,0,U,61746,999,14189,.23763E-3,.12733E-3,0
HORS 3 (RS81S),2024-199U,2026-07-16T03:47:09.720960,15.56954912,.000728,97.2928,73.6115,153.0760,207.0874,0,U,61753,999,14206,.30745E-3,.22099E-3,0
HORS 4 (RS82S),2024-199V,2026-07-16T03:38:54.917664,15.62453141,.0007123,97.2870,75.0104,145.5067,214.6654,0,U,61754,999,14216,.38516E-3,.34192E-3,0
SIT-2086,2024-199AF,2026-07-16T04:06:32.687424,15.55065021,.0008356,97.2884,74.0012,141.5720,218.6131,0,U,61764,999,13893,.31557E-3,.21161E-3,0
HYPERVIEW 1G (RS66S),2024-199AP,2026-07-16T02:59:38.100192,15.85644399,.0008305,97.2784,78.4994,145.8282,214.3525,0,U,61772,999,13924,.73077E-3,.179307E-2,0
ALTAIR (RS65S),2024-199AW,2026-07-16T03:26:03.019200,15.37518546,.0012144,97.2987,66.3077,192.9459,167.1476,0,U,61779,999,14156,.16708E-3,.6081E-4,0
ASRTU-1 (AO-123),2024-199AY,2026-07-16T03:46:46.754976,15.36061705,.0013124,97.2959,65.5692,197.0270,163.0535,0,U,61781,999,13837,.11857E-3,.4094E-4,0
SAMSAT-IONOSPHERE (RS75S),2024-199BB,2026-07-16T03:17:32.472096,15.60185725,.0009333,97.2891,73.7537,157.0377,203.1299,0,U,61784,999,14207,.41246E-3,.33591E-3,0
RTU MIREA 1 (RS51S),2024-199BC,2026-07-16T03:43:19.083072,15.64360958,.0009408,97.2879,74.7678,152.2674,207.9089,0,U,61785,999,13899,.43958E-3,.42143E-3,0
TEVEL2-4,2025-052D,2026-07-16T04:32:01.606272,15.35588389,.0003466,97.3863,93.6437,49.7684,310.3862,0,U,63213,999,7456,.30934E-3,.10626E-3,0
TEVEL2-5,2025-052E,2026-07-15T04:04:51.940704,15.35379345,.00035943,97.3866,92.5619,53.2255,306.9318,0,U,63214,999,7440,.30277793E-3,.10329E-3,0
TEVEL2-6,2025-052F,2026-07-15T12:12:47.954304,15.35351129,.00036215,97.3871,92.8865,54.7007,305.4575,0,U,63215,999,7445,.343915E-3,.11734E-3,0
TEVEL2-1,2025-052H,2026-07-14T15:14:51.352512,15.34761887,.0004319,97.3847,91.6018,61.6960,298.4718,0,U,63217,999,7430,.2955724E-3,.9885E-4,0
TEVEL2-3,2025-052J,2026-07-15T05:10:33.241728,15.34836829,.00039996,97.3848,92.2082,62.2511,297.9137,0,U,63218,999,7439,.30743443E-3,.10309E-3,0
TEVEL2-2,2025-052K,2026-07-16T03:14:23.658720,15.34804597,.0004244,97.3836,93.1056,58.4360,301.7297,0,U,63219,999,7453,.31534E-3,.10566E-3,0
OTP-2,2025-052AB,2026-07-15T04:40:21.861408,15.24337017,.00082123,97.3835,88.2085,71.0688,289.1439,0,U,63235,999,7413,.15351734E-3,.3687E-4,0
TEVEL2-9,2025-052AD,2026-07-15T22:54:43.530336,15.32746436,.0007616,97.3903,92.2363,55.0737,305.1220,0,U,63237,999,7443,.294E-3,.9229E-4,0
TEVEL2-7,2025-052AE,2026-07-16T03:09:56.597184,15.32433973,.0007678,97.3903,92.3168,54.3159,305.8797,0,U,63238,999,7445,.3028E-3,.9415E-4,0
TEVEL2-8,2025-052AF,2026-07-15T22:40:08.313888,15.32415227,.0007741,97.3903,92.1059,55.6204,304.5769,0,U,63239,999,7442,.29548E-3,.9179E-4,0
INNOSAT 16 (RS92S7),2025-155C,2026-07-16T04:32:52.731744,15.25744092,.0012475,97.4585,164.2340,85.3952,274.8711,0,U,64878,999,8509,.114E-3,.284E-4,0
GEOSCAN 6 (RS92S6),2025-155D,2026-07-16T03:31:00.955776,15.30665639,.0009943,97.4576,165.8245,79.4080,280.8280,0,U,64879,999,8519,.1977E-3,.579E-4,0
GEOSCAN 1 (RS92S1),2025-155E,2026-07-16T03:17:33.112320,15.31314447,.0009892,97.4572,165.9893,79.6940,280.5416,0,U,64880,999,8520,.21229E-3,.635E-4,0
239ALFEROV (RS61S),2025-155F,2026-07-16T04:39:42.679008,15.33686576,.0009591,97.4571,166.7094,79.4281,280.8041,0,U,64881,999,8525,.25398E-3,.8204E-4,0
GEOSCAN 2 (RS92S2),2025-155Q,2026-07-16T04:35:22.996032,15.31571790,.0009014,97.4571,166.2075,69.8347,290.3863,0,U,64890,999,8522,.1956E-3,.589E-4,0
GEOSCAN 5 (RS92S5),2025-155R,2026-07-16T04:15:24.111360,15.33991682,.0008611,97.4563,166.8407,83.9757,276.2466,0,U,64891,999,8526,.23678E-3,.7714E-4,0
GEOSCAN 4 (RS92S4),2025-155S,2026-07-16T03:48:15.938784,15.34159699,.0008531,97.4568,166.8788,84.3424,275.8791,0,U,64892,999,8526,.24213E-3,.7933E-4,0
